[
    {
        "CCSDS_OMM_VERS": "3.0",
        "COMMENT": "GENERATED VIA SPACE-TRACK.ORG API",
        "CREATION_DATE": "2025-04-14T06:26:32",
        "ORIGINATOR": "18 SPCS",
        "OBJECT_NAME": "NAVSTAR 67 (USA 239)",
        "OBJECT_ID": "2012-053A",
        "CENTER_NAME": "EARTH",
        "REF_FRAME": "TEME",
        "TIME_SYSTEM": "UTC",
        "MEAN_ELEMENT_THEORY": "SGP4",
        "EPOCH": "2025-04-14T01:04:35.693184",
        "MEAN_MOTION": "2.00562234",
        "ECCENTRICITY": "0.01637250",
        "INCLINATION": "53.5302",
        "RA_OF_ASC_NODE": "161.1702",
        "ARG_OF_PERICENTER": "60.0762",
        "MEAN_ANOMALY": "301.6288",
        "EPHEMERIS_TYPE": "0",
        "CLASSIFICATION_TYPE": "U",
        "NORAD_CAT_ID": "38833",
        "ELEMENT_SET_NO": "999",
        "REV_AT_EPOCH": "9172",
        "BSTAR": "0.00000000000000",
        "MEAN_MOTION_DOT": "0.00000048",
        "MEAN_MOTION_DDOT": "0.0000000000000",
        "SEMIMAJOR_AXIS": "26560.469",
        "PERIOD": "717.982",
        "APOAPSIS": "20617.195",
        "PERIAPSIS": "19747.472",
        "OBJECT_TYPE": "PAYLOAD",
        "RCS_SIZE": "LARGE",
        "COUNTRY_CODE": "US",
        "LAUNCH_DATE": "2012-10-04",
        "SITE": "AFETR",
        "DECAY_DATE": null,
        "FILE": "4701321",
        "GP_ID": "285552376",
        "TLE_LINE0": "0 NAVSTAR 67 (USA 239)",
        "TLE_LINE1": "1 38833U 12053A   25104.04485756  .00000048  00000-0  00000+0 0  9998",
        "TLE_LINE2": "2 38833  53.5302 161.1702 0163725  60.0762 301.6288  2.00562234 91729"
    }
]